NORAD_CAT_ID,OBJECT_NAME,OBJECT_TYPE,EPOCH,MEAN_MOTION,ECCENTRICITY,INCLINATION,RA_OF_ASC_NODE,ARG_OF_PERICENTER,MEAN_ANOMALY,BSTAR,MEAN_MOTION_DOT,MEAN_MOTION_DDOT,TLE_LINE0,TLE_LINE1,TLE_LINE2,SEMIMAJOR_AXIS,PERIOD,APOGEE,PERIGEE,DECAYED
53732.0,STARLINK-4661,PAYLOAD,2023-12-17 04:52:55,15.08827814,0.0001681,53.2181,306.0888,76.7865,283.3315,-4.6616e-05,-1.03e-05,0.0,0 STARLINK-4661,1 53732U 22107AJ  23351.20341554 -.00001030  00000-0 -46616-4 0  9993,2 53732  53.2181 306.0888 0001681  76.7865 283.3315 15.08827814 71748,6917.918,95.438,540.946,538.62,0.0
53732.0,STARLINK-4661,PAYLOAD,2023-12-18 03:08:17,15.08850272,0.0002147,53.2176,301.9254,61.7469,298.374,0.0002044,2.967e-05,0.0,0 STARLINK-4661,1 53732U 22107AJ  23352.13075506  .00002967  00000-0  20440-3 0  9991,2 53732  53.2176 301.9254 0002147  61.7469 298.3740 15.08850272 71286,6917.849,95.437,541.199,538.229,0.0
53732.0,STARLINK-4661,PAYLOAD,2023-12-19 02:59:05,15.08835343,0.0001464,53.2179,297.4682,106.1413,253.974,5.8416e-05,6.42e-06,0.0,0 STARLINK-4661,1 53732U 22107AJ  23353.12436995  .00000642  00000-0  58416-4 0  9997,2 53732  53.2179 297.4682 0001464 106.1413 253.9740 15.08835343 71433,6917.895,95.438,540.772,538.747,0.0
53732.0,STARLINK-4661,PAYLOAD,2023-12-20 01:14:28,15.08859886,0.0001314,53.2171,293.3077,100.9509,259.1631,-0.00013274,-2.401e-05,0.0,0 STARLINK-4661,1 53732U 22107AJ  23354.05171790 -.00002401  00000-0 -13274-3 0  9998,2 53732  53.2171 293.3077 0001314 100.9509 259.1631 15.08859886 71570,6917.82,95.436,540.594,538.776,0.0
53732.0,STARLINK-4661,PAYLOAD,2023-12-21 01:05:15,15.08845764,0.0001179,53.2172,288.8459,92.2547,267.858,0.00011683,1.572e-05,0.0,0 STARLINK-4661,1 53732U 22107AJ  23355.04531493  .00001572  00000-0  11683-3 0  9996,2 53732  53.2172 288.8459 0001179  92.2547 267.8580 15.08845764 71724,6917.863,95.437,540.543,538.912,0.0
53732.0,STARLINK-4661,PAYLOAD,2023-12-22 02:31:26,15.08836979,0.0001603,53.218,284.0842,115.11,245.0059,-3.3782e-05,-8.26e-06,0.0,0 STARLINK-4661,1 53732U 22107AJ  23356.10516611 -.00000826  00000-0 -33782-4 0  9997,2 53732  53.2180 284.0842 0001603 115.1100 245.0059 15.08836979 71883,6917.89,95.438,540.864,538.646,0.0
53732.0,STARLINK-4661,PAYLOAD,2023-12-23 03:57:35,15.08847875,0.0001594,53.2183,279.3218,89.9266,270.1909,4.1836e-05,3.78e-06,0.0,0 STARLINK-4661,1 53732U 22107AJ  23357.16499860  .00000378  00000-0  41836-4 0  9999,2 53732  53.2183 279.3218 0001594  89.9266 270.1909 15.08847875 72049,6917.856,95.437,540.824,538.619,0.0
53732.0,STARLINK-4661,PAYLOAD,2023-12-24 03:48:23,15.08843386,0.0001532,53.2175,274.8614,93.2816,266.8351,0.00014576,2.033e-05,0.0,0 STARLINK-4661,1 53732U 22107AJ  23358.15860395  .00002033  00000-0  14576-3 0  9994,2 53732  53.2175 274.8614 0001532  93.2816 266.8351 15.08843386 72193,6917.87,95.437,540.795,538.675,0.0
53732.0,STARLINK-4661,PAYLOAD,2023-12-24 21:17:38,15.08840497,0.0001582,53.2176,271.589,90.0486,270.0687,-1.0651e-05,-4.58e-06,0.0,0 STARLINK-4661,1 53732U 22107AJ  23358.88725188 -.00000458  00000-0 -10651-4 0  9996,2 53732  53.2176 271.5890 0001582  90.0486 270.0687 15.08840497 72905,6917.879,95.438,540.838,538.649,0.0
53732.0,STARLINK-4661,PAYLOAD,2023-12-25 03:39:09,15.08854432,0.0001372,53.217,270.4011,95.4056,264.7093,9.9159e-05,1.291e-05,0.0,0 STARLINK-4661,1 53732U 22107AJ  23359.15219786  .00001291  00000-0  99159-4 0  9993,2 53732  53.2170 270.4011 0001372  95.4056 264.7093 15.08854432 72940,6917.836,95.437,540.65,538.752,0.0
53732.0,STARLINK-4661,PAYLOAD,2023-12-26 03:29:58,15.08836316,0.0001568,53.218,265.9381,91.4196,268.6976,-1.0504e-05,-4.55e-06,0.0,0 STARLINK-4661,1 53732U 22107AJ  23360.14581627 -.00000455  00000-0 -10504-4 0  9990,2 53732  53.2180 265.9381 0001568  91.4196 268.6976 15.08836316 72492,6917.892,95.438,540.841,538.672,0.0
53732.0,STARLINK-4661,PAYLOAD,2023-12-26 22:34:35,15.08853618,0.0001412,53.2178,262.3733,78.2443,281.8708,8.3993e-05,1.05e-05,0.0,0 STARLINK-4661,1 53732U 22107AJ  23360.94068374  .00001050  00000-0  83993-4 0  9999,2 53732  53.2178 262.3733 0001412  78.2443 281.8708 15.08853618 73212,6917.839,95.437,540.681,538.727,0.0
53732.0,STARLINK-4661,PAYLOAD,2023-12-27 03:20:44,15.0885775,0.0001396,53.2167,261.4795,90.3518,269.7634,0.00026794,3.981e-05,0.0,0 STARLINK-4661,1 53732U 22107AJ  23361.13940286  .00003981  00000-0  26794-3 0  9992,2 53732  53.2167 261.4795 0001396  90.3518 269.7634 15.08857750 72647,6917.826,95.436,540.657,538.725,0.0
53732.0,STARLINK-4661,PAYLOAD,2023-12-27 17:39:13,15.08842111,0.0001372,53.2163,258.7961,109.6475,250.4665,0.00020581,2.989e-05,0.0,0 STARLINK-4661,1 53732U 22107AJ  23361.73557038  .00002989  00000-0  20581-3 0  9992,2 53732  53.2163 258.7961 0001372 109.6475 250.4665 15.08842111 72733,6917.874,95.437,540.688,538.79,0.0
53732.0,STARLINK-4661,PAYLOAD,2023-12-27 22:25:22,15.0885014,0.0001767,53.2156,257.9074,116.9058,243.2115,0.00016177,2.288e-05,0.0,0 STARLINK-4661,1 53732U 22107AJ  23361.93428462  .00002288  00000-0  16177-3 0  9990,2 53732  53.2156 257.9074 0001767 116.9058 243.2115 15.08850140 73368,6917.849,95.437,540.937,538.492,0.0
53732.0,STARLINK-4661,PAYLOAD,2023-12-28 00:00:45,15.08848757,0.0001272,53.2156,257.6184,90.2252,269.8886,0.00012838,1.756e-05,0.0,0 STARLINK-4661,1 53732U 22107AJ  23362.00052641  .00001756  00000-0  12838-3 0  9990,2 53732  53.2156 257.6184 0001272  90.2252 269.8886 15.08848757 73379,6917.854,95.437,540.599,538.839,0.0
53732.0,STARLINK-4661,PAYLOAD,2023-12-28 22:16:09,15.08843127,0.0001466,53.2151,253.453,97.7929,262.3229,-0.00011597,-2.133e-05,0.0,0 STARLINK-4661,1 53732U 22107AJ  23362.92788638 -.00002133  00000-0 -11597-3 0  9996,2 53732  53.2151 253.4530 0001466  97.7929 262.3229 15.08843127 73512,6917.871,95.437,540.75,538.722,0.0
53732.0,STARLINK-4661,PAYLOAD,2023-12-29 03:02:18,15.0884256,0.0001389,53.2154,252.5612,91.8963,268.2188,-9.4142e-05,-1.786e-05,0.0,0 STARLINK-4661,1 53732U 22107AJ  23363.12660685 -.00001786  00000-0 -94142-4 0  9991,2 53732  53.2154 252.5612 0001389  91.8963 268.2188 15.08842560 72948,6917.873,95.437,540.698,538.777,0.0
53732.0,STARLINK-4661,PAYLOAD,2023-12-29 22:06:56,15.08840922,0.0001467,53.2149,248.9933,95.9249,264.191,7.6301e-05,9.27e-06,0.0,0 STARLINK-4661,1 53732U 22107AJ  23363.92148886  .00000927  00000-0  76301-4 0  9994,2 53732  53.2149 248.9933 0001467  95.9249 264.1910 15.08840922 73664,6917.878,95.437,540.757,538.728,0.0
53732.0,STARLINK-4661,PAYLOAD,2023-12-30 17:11:34,15.08838726,0.0001497,53.2147,245.4249,91.8644,268.252,6.6182e-05,7.65e-06,0.0,0 STARLINK-4661,1 53732U 22107AJ  23364.71637124  .00000765  00000-0  66182-4 0  9996,2 53732  53.2147 245.4249 0001497  91.8644 268.2520 15.08838726 73189,6917.884,95.438,540.785,538.714,0.0
53732.0,STARLINK-4661,PAYLOAD,2023-12-30 21:57:44,15.08836154,0.000146,53.2159,244.5325,87.6067,272.5092,7.719e-05,9.41e-06,0.0,0 STARLINK-4661,1 53732U 22107AJ  23364.91509570  .00000941  00000-0  77190-4 0  9998,2 53732  53.2159 244.5325 0001460  87.6067 272.5092 15.08836154 73814,6917.892,95.438,540.767,538.747,0.0
53732.0,STARLINK-4661,PAYLOAD,2023-12-31 20:13:08,15.08839529,0.0001449,53.2156,240.3706,79.7507,280.3648,7.8103e-05,9.55e-06,0.0,0 STARLINK-4661,1 53732U 22107AJ  23365.84245528  .00000955  00000-0  78103-4 0  9991,2 53732  53.2156 240.3706 0001449  79.7507 280.3648 15.08839529 73358,6917.882,95.438,540.749,538.744,0.0
53732.0,STARLINK-4661,PAYLOAD,2023-12-31 21:48:31,15.0883995,0.0001457,53.2154,240.073,79.1845,280.9311,7.8007e-05,9.54e-06,0.0,0 STARLINK-4661,1 53732U 22107AJ  23365.90869451  .00000954  00000-0  78007-4 0  9997,2 53732  53.2154 240.0730 0001457  79.1845 280.9311 15.08839950 73966,6917.881,95.438,540.753,538.738,0.0
53732.0,STARLINK-4661,PAYLOAD,2024-01-01 00:59:17,15.08842067,0.0001492,53.2159,239.4782,82.4531,277.6631,8.9907e-05,1.143e-05,0.0,0 STARLINK-4661,1 53732U 22107AJ  24001.04117270  .00001143  00000-0  89907-4 0  9997,2 53732  53.2159 239.4782 0001492  82.4531 277.6631 15.08842067 73981,6917.874,95.437,540.771,538.707,0.0
53732.0,STARLINK-4661,PAYLOAD,2024-01-01 21:39:18,15.08840511,0.0001516,53.2159,235.6126,81.5698,278.5466,9.5296e-05,1.229e-05,0.0,0 STARLINK-4661,1 53732U 22107AJ  24001.90229420  .00001229  00000-0  95296-4 0  9996,2 53732  53.2159 235.6126 0001516  81.5698 278.5466 15.08840511 74116,6917.879,95.438,540.793,538.695,0.0
53732.0,STARLINK-4661,PAYLOAD,2024-01-02 00:50:04,15.08844153,0.0001496,53.2159,235.0177,81.6001,278.5161,0.00012402,1.687e-05,0.0,0 STARLINK-4661,1 53732U 22107AJ  24002.03477113  .00001687  00000-0  12402-3 0  9990,2 53732  53.2159 235.0177 0001496  81.6001 278.5161 15.08844153 73535,6917.868,95.437,540.768,538.698,0.0
53732.0,STARLINK-4661,PAYLOAD,2024-01-03 19:45:28,15.08841728,0.00013,53.2156,226.988,89.5197,270.5944,3.6909e-06,-2.29e-06,0.0,0 STARLINK-4661,1 53732U 22107AJ  24003.82325218 -.00000229  00000-0  36909-5 0  9998,2 53732  53.2156 226.9880 0001300  89.5197 270.5944 15.08841728 73805,6917.875,95.437,540.639,538.841,0.0
53732.0,STARLINK-4661,PAYLOAD,2024-01-03 21:20:52,15.08842376,0.0001331,53.2152,226.6903,88.8178,271.2967,1.3005e-05,-8.1e-07,0.0,0 STARLINK-4661,1 53732U 22107AJ  24003.88949146 -.00000081  00000-0  13005-4 0  9993,2 53732  53.2152 226.6903 0001331  88.8178 271.2967 15.08842376 74410,6917.873,95.437,540.659,538.817,0.0
53732.0,STARLINK-4661,PAYLOAD,2024-01-04 00:31:38,15.08842154,0.0001334,53.2152,226.0961,88.6854,271.4291,8.0867e-06,-1.59e-06,0.0,0 STARLINK-4661,1 53732U 22107AJ  24004.02197143 -.00000159  00000-0  80867-5 0  9999,2 53732  53.2152 226.0961 0001334  88.6854 271.4291 15.08842154 74438,6917.874,95.437,540.662,538.816,0.0
53732.0,STARLINK-4661,PAYLOAD,2024-01-04 21:11:39,15.08835726,0.0001497,53.2156,222.2284,103.4362,256.6797,2.5108e-05,1.12e-06,0.0,0 STARLINK-4661,1 53732U 22107AJ  24004.88309472  .00000112  00000-0  25108-4 0  9997,2 53732  53.2156 222.2284 0001497 103.4362 256.6797 15.08835726 73968,6917.893,95.438,540.794,538.723,0.0
